{"type": "FeatureCollection", "features": [ {"type": "Feature", "properties": {"norad_id": 17070, "name": "POLAR BEAR", "group": "nnss", "lat": -0.3831530891940412, "lon": 3.3986272413381795, "alt_km": 982.7415652214386, "timestamp": "2025-12-22T04:03:39.437709+00:00", "meta": {"OBJECT_NAME": "POLAR BEAR", "OBJECT_ID": "1986-088A", "EPOCH": "2025-12-21T18:30:42.261408", "MEAN_MOTION": 13.752526, "ECCENTRICITY": 0.0041288, "INCLINATION": 89.6171, "RA_OF_ASC_NODE": 183.4121, "ARG_OF_PERICENTER": 93.2514, "MEAN_ANOMALY": 277.8554, "EPHEMERIS_TYPE": 0, "CLASSIFICATION_TYPE": "U", "NORAD_CAT_ID": 17070, "ELEMENT_SET_NO": 999, "REV_AT_EPOCH": 96103, "BSTAR": 8.9705e-05, "MEAN_MOTION_DOT": 9.8e-07, "MEAN_MOTION_DDOT": 0}, "tle": {"line1": "1 17070U 86088A   25355.77132247  .00000098  00000+0  89705-4 0  9997", "line2": "2 17070  89.6171 183.4121 0041288  93.2514 277.8554 13.75252600961034"}}, "geometry": {"type": "Point", "coordinates": [3.3986272413381795, -0.3831530891940412]}}, {"type": "Feature", "properties": {"norad_id": 18361, "name": "OSCAR 27", "group": "nnss", "lat": 52.429074305818794, "lon": -99.88869550174387, "alt_km": 1057.9211103262523, "timestamp": "2025-12-22T04:03:39.437720+00:00", "meta": {"OBJECT_NAME": "OSCAR 27", "OBJECT_ID": "1987-080A", "EPOCH": "2025-12-21T16:42:30.284640", "MEAN_MOTION": 13.44908421, "ECCENTRICITY": 0.0103653, "INCLINATION": 90.3739, "RA_OF_ASC_NODE": 79.6073, "ARG_OF_PERICENTER": 197.9795, "MEAN_ANOMALY": 161.7676, "EPHEMERIS_TYPE": 0, "CLASSIFICATION_TYPE": "U", "NORAD_CAT_ID": 18361, "ELEMENT_SET_NO": 999, "REV_AT_EPOCH": 87677, "BSTAR": 0.00016317, "MEAN_MOTION_DOT": 1.07e-06, "MEAN_MOTION_DDOT": 0}, "tle": {"line1": "1 18361U 87080A   25355.69618385  .00000107  00000+0  16317-3 0  9996", "line2": "2 18361  90.3739  79.6073 0103653 197.9795 161.7676 13.44908421876774"}}, "geometry": {"type": "Point", "coordinates": [-99.88869550174387, 52.429074305818794]}}, {"type": "Feature", "properties": {"norad_id": 18362, "name": "OSCAR 29", "group": "nnss", "lat": 55.86432560056976, "lon": -99.36193400250356, "alt_km": 1094.5365585610552, "timestamp": "2025-12-22T04:03:39.437730+00:00", "meta": {"OBJECT_NAME": "OSCAR 29", "OBJECT_ID": "1987-080B", "EPOCH": "2025-12-21T17:29:28.346784", "MEAN_MOTION": 13.44450025, "ECCENTRICITY": 0.0104486, "INCLINATION": 90.375, "RA_OF_ASC_NODE": 80.0681, "ARG_OF_PERICENTER": 221.1127, "MEAN_ANOMALY": 293.8404, "EPHEMERIS_TYPE": 0, "CLASSIFICATION_TYPE": "U", "NORAD_CAT_ID": 18362, "ELEMENT_SET_NO": 999, "REV_AT_EPOCH": 87630, "BSTAR": 0.00016508, "MEAN_MOTION_DOT": 1.07e-06, "MEAN_MOTION_DDOT": 0}, "tle": {"line1": "1 18362U 87080B   25355.72880031  .00000107  00000+0  16508-3 0  9992", "line2": "2 18362  90.3750  80.0681 0104486 221.1127 293.8404 13.44450025876300"}}, "geometry": {"type": "Point", "coordinates": [-99.36193400250356, 55.86432560056976]}}, {"type": "Feature", "properties": {"norad_id": 19070, "name": "OSCAR 23", "group": "nnss", "lat": 53.58804694271344, "lon": 16.250152992560476, "alt_km": 1172.5995263918458, "timestamp": "2025-12-22T04:03:39.437741+00:00", "meta": {"OBJECT_NAME": "OSCAR 23", "OBJECT_ID": "1988-033A", "EPOCH": "2025-12-21T12:06:05.436576", "MEAN_MOTION": 13.27788556, "ECCENTRICITY": 0.01902426, "INCLINATION": 90.3203, "RA_OF_ASC_NODE": 16.664, "ARG_OF_PERICENTER": 155.5953, "MEAN_ANOMALY": 323.4425, "EPHEMERIS_TYPE": 0, "CLASSIFICATION_TYPE": "U", "NORAD_CAT_ID": 19070, "ELEMENT_SET_NO": 999, "REV_AT_EPOCH": 82369, "BSTAR": 0.0001193184, "MEAN_MOTION_DOT": 6.9e-07, "MEAN_MOTION_DDOT": 0}, "tle": {"line1": "1 19070U 88033A   25355.50422959  .00000069  00000+0  11932-3 0  9998", "line2": "2 19070  90.3203  16.6640 0190242 155.5953 323.4425 13.27788556823693"}}, "geometry": {"type": "Point", "coordinates": [16.250152992560476, 53.58804694271344]}}, {"type": "Feature", "properties": {"norad_id": 19071, "name": "OSCAR 32", "group": "nnss", "lat": 6.973701558629011, "lon": -163.1436022426647, "alt_km": 1035.2548729633918, "timestamp": "2025-12-22T04:03:39.437751+00:00", "meta": {"OBJECT_NAME": "OSCAR 32", "OBJECT_ID": "1988-033B", "EPOCH": "2025-12-21T19:01:45.302016", "MEAN_MOTION": 13.27955349, "ECCENTRICITY": 0.0189028, "INCLINATION": 90.3209, "RA_OF_ASC_NODE": 16.8054, "ARG_OF_PERICENTER": 141.7111, "MEAN_ANOMALY": 32.0527, "EPHEMERIS_TYPE": 0, "CLASSIFICATION_TYPE": "U", "NORAD_CAT_ID": 19071, "ELEMENT_SET_NO": 999, "REV_AT_EPOCH": 82385, "BSTAR": 0.00015275, "MEAN_MOTION_DOT": 8.6e-07, "MEAN_MOTION_DDOT": 0}, "tle": {"line1": "1 19071U 88033B   25355.79288544  .00000086  00000+0  15275-3 0  9993", "line2": "2 19071  90.3209  16.8054 0189028 141.7111  32.0527 13.27955349823854"}}, "geometry": {"type": "Point", "coordinates": [-163.1436022426647, 6.973701558629011]}}, {"type": "Feature", "properties": {"norad_id": 19223, "name": "NOVA 2", "group": "nnss", "lat": -18.841399745099913, "lon": -101.73478863481942, "alt_km": 1198.452305621221, "timestamp": "2025-12-22T04:03:39.437761+00:00", "meta": {"OBJECT_NAME": "NOVA 2", "OBJECT_ID": "1988-052A", "EPOCH": "2025-12-21T16:47:58.494048", "MEAN_MOTION": 13.22936781, "ECCENTRICITY": 0.0029831, "INCLINATION": 89.9868, "RA_OF_ASC_NODE": 78.2613, "ARG_OF_PERICENTER": 352.1473, "MEAN_ANOMALY": 133.3245, "EPHEMERIS_TYPE": 0, "CLASSIFICATION_TYPE": "U", "NORAD_CAT_ID": 19223, "ELEMENT_SET_NO": 999, "REV_AT_EPOCH": 81066, "BSTAR": 0.00012945, "MEAN_MOTION_DOT": 6.3e-07, "MEAN_MOTION_DDOT": 0}, "tle": {"line1": "1 19223U 88052A   25355.69998257  .00000063  00000+0  12945-3 0  9997", "line2": "2 19223  89.9868  78.2613 0029831 352.1473 133.3245 13.22936781810666"}}, "geometry": {"type": "Point", "coordinates": [-101.73478863481942, -18.841399745099913]}}, {"type": "Feature", "properties": {"norad_id": 19419, "name": "OSCAR 25", "group": "nnss", "lat": -42.66050226928471, "lon": -159.75623935702868, "alt_km": 1035.3292570088852, "timestamp": "2025-12-22T04:03:39.437772+00:00", "meta": {"OBJECT_NAME": "OSCAR 25", "OBJECT_ID": "1988-074A", "EPOCH": "2025-12-21T20:39:59.584320", "MEAN_MOTION": 13.42625, "ECCENTRICITY": 0.009496, "INCLINATION": 90.0337, "RA_OF_ASC_NODE": 20.2738, "ARG_OF_PERICENTER": 219.4473, "MEAN_ANOMALY": 314.7401, "EPHEMERIS_TYPE": 0, "CLASSIFICATION_TYPE": "U", "NORAD_CAT_ID": 19419, "ELEMENT_SET_NO": 999, "REV_AT_EPOCH": 82762, "BSTAR": 0.00014504, "MEAN_MOTION_DOT": 9.3e-07, "MEAN_MOTION_DDOT": 0}, "tle": {"line1": "1 19419U 88074A   25355.86110630  .00000093  00000+0  14504-3 0  9994", "line2": "2 19419  90.0337  20.2738 0094960 219.4473 314.7401 13.42625000827626"}}, "geometry": {"type": "Point", "coordinates": [-159.75623935702868, -42.66050226928471]}}, {"type": "Feature", "properties": {"norad_id": 19420, "name": "OSCAR 31", "group": "nnss", "lat": 76.03920506797073, "lon": -159.23156290773824, "alt_km": 1114.4504879783335, "timestamp": "2025-12-22T04:03:39.437782+00:00", "meta": {"OBJECT_NAME": "OSCAR 31", "OBJECT_ID": "1988-074B", "EPOCH": "2025-12-21T19:27:49.261248", "MEAN_MOTION": 13.42586164, "ECCENTRICITY": 0.009333, "INCLINATION": 90.0353, "RA_OF_ASC_NODE": 20.6251, "ARG_OF_PERICENTER": 213.7287, "MEAN_ANOMALY": 320.8577, "EPHEMERIS_TYPE": 0, "CLASSIFICATION_TYPE": "U", "NORAD_CAT_ID": 19420, "ELEMENT_SET_NO": 999, "REV_AT_EPOCH": 82772, "BSTAR": 0.00013752, "MEAN_MOTION_DOT": 8.9e-07, "MEAN_MOTION_DDOT": 0}, "tle": {"line1": "1 19420U 88074B   25355.81098682  .00000089  00000+0  13752-3 0  9992", "line2": "2 19420  90.0353  20.6251 0093330 213.7287 320.8577 13.42586164827720"}}, "geometry": {"type": "Point", "coordinates": [-159.23156290773824, 76.03920506797073]}}]}